KUIPER-00061            
1 64521U 25134X   25269.91668981  .00003896  00000+0  30517-3 0  9999
2 64521  51.8944 233.7587 0008248  85.7573 107.6110 15.03129780  3941
KUIPER-00062            
1 64522U 25134Y   25269.91668981 -.01797424  00000+0 -16023+0 0  9992
2 64522  51.8896 240.1937 0009824 103.1798 238.1282 14.99228990  5077
KUIPER-00063            
1 64523U 25134Z   25269.65272679 -.00005194  00000+0 -65718-3 0  9993
2 64523  51.9011 243.3390 0004635  55.5091 304.6308 14.79644585 15717
KUIPER-00064            
1 64524U 25134AA  25269.91668981  .00008746  00000+0  11910-2 0  9996
2 64524  51.9012 239.3620 0009240 169.6106 257.9860 14.79332872  4805
KUIPER-00065            
1 64525U 25134AB  25269.34643591  .00006802  00000+0  92244-3 0  9995
2 64525  51.8999 246.9252 0012026  98.0511 262.1816 14.79804965 15623
KUIPER-00066            
1 64526U 25134AC  25269.07412377  .00028876  00000+0  13922-2 0  9992
2 64526  51.8894 239.7567 0006218  83.8107 276.3580 15.18469545 15716
KUIPER-00069            
1 64816U 25151A   25269.33886377  .00077864  00000+0  20688-2 0  9995
2 64816  51.8784 299.6773 0008144  41.0884 319.0715 15.37538412 12250
KUIPER-00070            
1 64817U 25151B   25269.34554759  .00005210  00000+0  71405-3 0  9993
2 64817  51.8988 312.2198 0009660  73.4729 286.7294 14.79789807 12085
